{
  "type": "FeatureCollection",
  "features": [
    {
      "type": "Feature",
      "geometry": {
        "geodesic": false,
        "type": "MultiPolygon",
        "coordinates": [
          [
            [
              [
                86.91748952960218,
                27.901555652154297
              ],
              [
                86.91759114338893,
                27.901555712952273
              ],
              [
                86.91759107500019,
                27.901645987125544
              ],
              [
                86.9174894611236,
                27.901645926327564
              ],
              [
                86.91748952960218,
                27.901555652154297
              ]
            ]
          ],
          [
            [
              [
                86.91748952960218,
                27.901555652154297
              ],
              [
                86.91708307442818,
                27.90155540821678
              ],
              [
                86.91708293679729,
                27.901735956554333
              ],
              [
                86.91718455075473,
                27.90173601765774
              ],
              [
                86.91718448202462,
                27.901826291822026
              ],
              [
                86.91698125393906,
                27.901826169552333
              ],
              [
                86.91698118503828,
                27.9019164437256
              ],
              [
                86.91667634264493,
                27.901916259750628
              ],
              [
                86.91667627349261,
                27.9020065339239
              ],
              [
                86.91647304507468,
                27.90200641089962
              ],
              [
                86.91647297575169,
                27.902096685063903
              ],
              [
                86.91616813286426,
                27.902096499975023
              ],
              [
                86.91616806328975,
                27.902186774130325
              ],
              [
                86.91596483453044,
                27.902186650360445
              ],
              [
                86.91596476478524,
                27.90227692452473
              ],
              [
                86.91565992139476,
                27.90227673830397
              ],
              [
                86.91565985139803,
                27.902367012468257
              ],
              [
                86.9145420913983,
                27.902366323891627
              ],
              [
                86.91454237509525,
                27.902005227252452
              ],
              [
                86.91464398930422,
                27.902005290224352
              ],
              [
                86.91464406013638,
                27.90191501606905
              ],
              [
                86.9147456742645,
                27.901915078960105
              ],
              [
                86.91474588652741,
                27.90164425646725
              ],
              [
                86.91464427265981,
                27.901644193576196
              ],
              [
                86.91464434349197,
                27.90155391940293
              ],
              [
                86.91454272971419,
                27.90155385644001
              ],
              [
                86.91454280063618,
                27.90146358226674
              ],
              [
                86.91444118693026,
                27.901463519222975
              ],
              [
                86.91444125794209,
                27.90137324505869
              ],
              [
                86.914339644326,
                27.901373181934073
              ],
              [
                86.91433985759504,
                27.901102359423252
              ],
              [
                86.91423824423049,
                27.901102296235756
              ],
              [
                86.91423845775104,
                27.90083147370697
              ],
              [
                86.91413684463802,
                27.900831410438624
              ],
              [
                86.91413691590137,
                27.900741136265353
              ],
              [
                86.9136288507764,
                27.900740818800735
              ],
              [
                86.91362892246197,
                27.900650544627464
              ],
              [
                86.91332408364391,
                27.900650353250377
              ],
              [
                86.91332415557203,
                27.90056007907711
              ],
              [
                86.91301931701447,
                27.900559887026283
              ],
              [
                86.91302068844547,
                27.898844677464695
              ],
              [
                86.91342713345054,
                27.89884493336777
              ],
              [
                86.91342727712708,
                27.898664384967333
              ],
              [
                86.91363049929275,
                27.89866451246522
              ],
              [
                86.91363078597212,
                27.898303415646385
              ],
              [
                86.9142404504479,
                27.898303796334435
              ],
              [
                86.91424059277698,
                27.898123247916033
              ],
              [
                86.91403737161743,
                27.898123121316463
              ],
              [
                86.91403751427887,
                27.89794257289806
              ],
              [
                86.91444395592424,
                27.897942825782795
              ],
              [
                86.91444409791197,
                27.89776227735541
              ],
              [
                86.9148505388836,
                27.897762529045387
              ],
              [
                86.91485068019757,
                27.89758198060902
              ],
              [
                86.91505390034203,
                27.897582106004847
              ],
              [
                86.91505404131465,
                27.897401557559498
              ],
              [
                86.91586692058992,
                27.897402056142447
              ],
              [
                86.91586706020608,
                27.897221507688112
              ],
              [
                86.91688315764054,
                27.89722212416596
              ],
              [
                86.91688329556787,
                27.897041575711626
              ],
              [
                86.9174929530368,
                27.89704194199968
              ],
              [
                86.91749308995801,
                27.89686139352738
              ],
              [
                86.91830596523579,
                27.89686187771932
              ],
              [
                86.91830610080953,
                27.896681329238035
              ],
              [
                86.91932219325834,
                27.89668192773161
              ],
              [
                86.91932232713427,
                27.896501379241343
              ],
              [
                86.920135199771,
                27.896501852635534
              ],
              [
                86.92013526603971,
                27.8964115783904
              ],
              [
                86.92023687502947,
                27.89641163723005
              ],
              [
                86.92023694121734,
                27.896321362975932
              ],
              [
                86.92074498577986,
                27.89632165604231
              ],
              [
                86.92074505153654,
                27.896231381788194
              ],
              [
                86.9208466603646,
                27.89623144017869
              ],
              [
                86.92084672604044,
                27.896141165924572
              ],
              [
                86.92115155228207,
                27.89614134063791
              ],
              [
                86.92115161769739,
                27.896051066383794
              ],
              [
                86.92125322636376,
                27.896051124468862
              ],
              [
                86.92125329169822,
                27.895960850214745
              ],
              [
                86.92237098607603,
                27.895961484227705
              ],
              [
                86.92237111489445,
                27.89578093571049
              ],
              [
                86.92257433171514,
                27.895781050003144
              ],
              [
                86.92257439596264,
                27.895690775749028
              ],
              [
                86.92267600428765,
                27.895690832783064
              ],
              [
                86.92267606844533,
                27.895600558519966
              ],
              [
                86.92298089317781,
                27.895600729181904
              ],
              [
                86.92298114879341,
                27.89523963212052
              ],
              [
                86.92338758042257,
                27.895239858621736
              ],
              [
                86.92338751685779,
                27.895330132884837
              ],
              [
                86.9230826928799,
                27.895329963121213
              ],
              [
                86.92308256524726,
                27.895510511656397
              ],
              [
                86.92359060605483,
                27.89551079422147
              ],
              [
                86.92359054266072,
                27.89560106848457
              ],
              [
                86.92440340864093,
                27.895601516698978
              ],
              [
                86.92440353409066,
                27.895420968154813
              ],
              [
                86.92582604725409,
                27.895421740984435
              ],
              [
                86.92582617033226,
                27.89524119244027
              ],
              [
                86.92867119210467,
                27.89524269403715
              ],
              [
                86.92867131046668,
                27.895062145475016
              ],
              [
                86.93090668115718,
                27.89506328408964
              ],
              [
                86.93090679580916,
                27.894882735518525
              ],
              [
                86.93111001099491,
                27.894882837225783
              ],
              [
                86.93111012530554,
                27.894702288645682
              ],
              [
                86.93171976986568,
                27.89470259198879
              ],
              [
                86.93171965656117,
                27.894883140568886
              ],
              [
                86.93293894772064,
                27.894883739161276
              ],
              [
                86.93293905899495,
                27.894703190572194
              ],
              [
                86.9347679927742,
                27.89470406823521
              ],
              [
                86.93476810101221,
                27.894523519637147
              ],
              [
                86.93497131555118,
                27.89452361564908
              ],
              [
                86.93497142344782,
                27.894343067051018
              ],
              [
                86.93507303055112,
                27.894343114940206
              ],
              [
                86.93507297667915,
                27.89443338924822
              ],
              [
                86.9351745838633,
                27.894433437065544
              ],
              [
                86.93517453008116,
                27.89452371137356
              ],
              [
                86.9357841736801,
                27.894523996732392
              ],
              [
                86.93578412041,
                27.894614271031426
              ],
              [
                86.93588572775586,
                27.894614318336707
              ],
              [
                86.93588578095408,
                27.894524044028692
              ],
              [
                86.93598738821908,
                27.89452409125313
              ],
              [
                86.93598733511068,
                27.894614365552158
              ],
              [
                86.936393764521,
                27.894614553704297
              ],
              [
                86.93639371175395,
                27.894704828003327
              ],
              [
                86.9365969266253,
                27.894704921625745
              ],
              [
                86.9365968214236,
                27.894885470223812
              ],
              [
                86.93680003663631,
                27.894885563549785
              ],
              [
                86.93679993176698,
                27.895066112147852
              ],
              [
                86.93923851846968,
                27.8950672086764
              ],
              [
                86.93923841764277,
                27.89524775727447
              ],
              [
                86.93984806534702,
                27.895248024666994
              ],
              [
                86.93984816515884,
                27.89506747606893
              ],
              [
                86.94045781186595,
                27.89506774076651
              ],
              [
                86.94045791067165,
                27.89488719215048
              ],
              [
                86.94066112590232,
                27.894887279781138
              ],
              [
                86.94066117513898,
                27.894797005482104
              ],
              [
                86.94106760526795,
                27.894797179845103
              ],
              [
                86.94106755637266,
                27.894887454153118
              ],
              [
                86.94137237922764,
                27.894887584139337
              ],
              [
                86.94137242787141,
                27.894797309831322
              ],
              [
                86.94147403539692,
                27.894797353004357
              ],
              [
                86.94147398684298,
                27.89488762731237
              ],
              [
                86.94167720208264,
                27.894887713451823
              ],
              [
                86.94167710529815,
                27.89506826205887
              ],
              [
                86.94188032087916,
                27.89506834790188
              ],
              [
                86.94188022443603,
                27.895248896508928
              ],
              [
                86.94198183239273,
                27.89524893931365
              ],
              [
                86.94197966598864,
                27.89931128178196
              ],
              [
                86.94177644248448,
                27.89931119608268
              ],
              [
                86.94177639416411,
                27.899401470327813
              ],
              [
                86.94147155866084,
                27.899401341221942
              ],
              [
                86.94147151009791,
                27.899491615467074
              ],
              [
                86.94136989817964,
                27.899491572276077
              ],
              [
                86.9413698495269,
                27.89958184652121
              ],
              [
                86.94126823751878,
                27.899581803258346
              ],
              [
                86.9412681400426,
                27.899762351748613
              ],
              [
                86.94116652787281,
                27.899762308413884
              ],
              [
                86.94116647904937,
                27.899852582659015
              ],
              [
                86.94106486679873,
                27.89985253924344
              ],
              [
                86.94106481788546,
                27.899942813488572
              ],
              [
                86.94065836853254,
                27.89994263908066
              ],
              [
                86.94065827004125,
                27.900123187561945
              ],
              [
                86.94045504502793,
                27.900123099913323
              ],
              [
                86.94045494620426,
                27.900303648385623
              ],
              [
                86.94025172084957,
                27.900303560431574
              ],
              [
                86.94025162168455,
                27.90048410889489
              ],
              [
                86.9400483959975,
                27.900484020644395
              ],
              [
                86.94004809747834,
                27.901025666016384
              ],
              [
                86.94025132417151,
                27.901025754266875
              ],
              [
                86.94025122500649,
                27.90120630272121
              ],
              [
                86.94035283852375,
                27.901206346729676
              ],
              [
                86.94035269001428,
                27.90147716939321
              ],
              [
                86.94045430379205,
                27.901477213338794
              ],
              [
                86.94045425437572,
                27.901567487556978
              ],
              [
                86.94055586822537,
                27.901567531421716
              ],
              [
                86.9405558188899,
                27.9016578056399
              ],
              [
                86.94045420495043,
                27.901657761775162
              ],
              [
                86.9404541555341,
                27.901748035993347
              ],
              [
                86.9405557695634,
                27.90174807985808
              ],
              [
                86.94055547355056,
                27.902289725131254
              ],
              [
                86.9403522444948,
                27.902289637320933
              ],
              [
                86.94035219498865,
                27.902379911530137
              ],
              [
                86.93984412191361,
                27.902379690697288
              ],
              [
                86.93984417184197,
                27.902289416488088
              ],
              [
                86.93923448467473,
                27.902289149014713
              ],
              [
                86.93923453510615,
                27.902198874814495
              ],
              [
                86.93842161956589,
                27.902198513988193
              ],
              [
                86.93842167067105,
                27.902108239778993
              ],
              [
                86.93821844195666,
                27.90210814882457
              ],
              [
                86.9382184932325,
                27.90201787461537
              ],
              [
                86.93791365041693,
                27.90201773762229
              ],
              [
                86.9379137019443,
                27.901927463413088
              ],
              [
                86.93740563101623,
                27.90192723359709
              ],
              [
                86.9374056829658,
                27.90183695938789
              ],
              [
                86.93710084066228,
                27.901836820589192
              ],
              [
                86.93710089286338,
                27.901746546379993
              ],
              [
                86.9367960508114,
                27.901746406916544
              ],
              [
                86.93679610326402,
                27.901656132707345
              ],
              [
                86.93628803361156,
                27.901655898768077
              ],
              [
                86.9362880864864,
                27.901565624558877
              ],
              [
                86.9360848587961,
                27.901565530460353
              ],
              [
                86.9360849118416,
                27.90147525625115
              ],
              [
                86.93588168432198,
                27.9014751618472
              ],
              [
                86.93588173752919,
                27.901384887637995
              ],
              [
                86.93557689650129,
                27.901384745479604
              ],
              [
                86.935576949969,
                27.90129447126142
              ],
              [
                86.93537372278176,
                27.90129437612085
              ],
              [
                86.93537377642016,
                27.901204101902664
              ],
              [
                86.9350689359043,
                27.901203958621377
              ],
              [
                86.93506898978524,
                27.901113684403192
              ],
              [
                86.93466253610245,
                27.901113492316433
              ],
              [
                86.93466259032476,
                27.90102321809825
              ],
              [
                86.93425613698332,
                27.90102302480775
              ],
              [
                86.934256191547,
                27.90093275059855
              ],
              [
                86.93384973854691,
                27.90093255610431
              ],
              [
                86.93384979344296,
                27.900842281895105
              ],
              [
                86.93273204864272,
                27.900841740875745
              ],
              [
                86.93273210446402,
                27.90075146665756
              ],
              [
                86.93202081292438,
                27.90075111765309
              ],
              [
                86.93202086933857,
                27.900660843443887
              ],
              [
                86.93161441737156,
                27.900660642364993
              ],
              [
                86.93161447412712,
                27.90057036814681
              ],
              [
                86.93100479668864,
                27.900570064282682
              ],
              [
                86.93100485394724,
                27.900479790073483
              ],
              [
                86.93070001548853,
                27.90047963712632
              ],
              [
                86.93070007299866,
                27.90038936291712
              ],
              [
                86.92998878385751,
                27.90038900342931
              ],
              [
                86.92998884195156,
                27.900298729211126
              ],
              [
                86.92958239135896,
                27.90029852214047
              ],
              [
                86.92958233292356,
                27.900388796358655
              ],
              [
                86.92917588199859,
                27.90038858809324
              ],
              [
                86.92917594076637,
                27.900298313875055
              ],
              [
                86.92876949018277,
                27.90029810441488
              ],
              [
                86.92876943107362,
                27.900388378624083
              ],
              [
                86.92785491650592,
                27.90038790294817
              ],
              [
                86.9278548566332,
                27.90047817715737
              ],
              [
                86.92724517976964,
                27.90047785666543
              ],
              [
                86.92724511939387,
                27.90056813087463
              ],
              [
                86.92643221624138,
                27.900567699350916
              ],
              [
                86.92643215518288,
                27.900657973551134
              ],
              [
                86.9249079605626,
                27.900657151529767
              ],
              [
                86.92490789824647,
                27.900747425729985
              ],
              [
                86.92419660685054,
                27.900747036346242
              ],
              [
                86.92419654394152,
                27.90083731054646
              ],
              [
                86.92358686511065,
                27.900836973866873
              ],
              [
                86.9235869919438,
                27.90065642546644
              ],
              [
                86.9233837660052,
                27.900656312647023
              ],
              [
                86.92338363883968,
                27.900836861038474
              ],
              [
                86.9232820256997,
                27.900836804516477
              ],
              [
                86.9232819620361,
                27.90092707870771
              ],
              [
                86.92267228271116,
                27.900926737976725
              ],
              [
                86.92267221853552,
                27.90101701217694
              ],
              [
                86.92257060523384,
                27.901016955124938
              ],
              [
                86.92257066949034,
                27.900926680933704
              ],
              [
                86.92226582983685,
                27.900926509328535
              ],
              [
                86.92226576532883,
                27.90101678351977
              ],
              [
                86.92155447221712,
                27.9010163804996
              ],
              [
                86.92155440711622,
                27.901106654690835
              ],
              [
                86.92104634019462,
                27.901106364570932
              ],
              [
                86.92104627467151,
                27.90119663875318
              ],
              [
                86.92074143427241,
                27.901196463779332
              ],
              [
                86.92074156582171,
                27.901015915405846
              ],
              [
                86.92053833922735,
                27.901015798382314
              ],
              [
                86.92053820733669,
                27.9011963467558
              ],
              [
                86.92023336694659,
                27.901196170659052
              ],
              [
                86.92023330074075,
                27.90128644485029
              ],
              [
                86.91952200590428,
                27.901286031328812
              ],
              [
                86.91952193911453,
                27.901376305511064
              ],
              [
                86.91901387096226,
                27.901376007890228
              ],
              [
                86.9190139381742,
                27.90128573371696
              ],
              [
                86.91870909754155,
                27.90128555424255
              ],
              [
                86.91870903007808,
                27.9013758284248
              ],
              [
                86.91830257555985,
                27.901375588080548
              ],
              [
                86.918302507764,
                27.901465862262796
              ],
              [
                86.91799766662828,
                27.901465681216337
              ],
              [
                86.91799759857192,
                27.901555955389604
              ],
              [
                86.91769275718468,
                27.90155577367839
              ],
              [
                86.91769289380046,
                27.90137522532287
              ],
              [
                86.91748966655034,
                27.90137510380776
              ],
              [
                86.91748952960218,
                27.901555652154297
              ]
            ],
            [
              [
                86.91505220858079,
                27.89974868694482
              ],
              [
                86.91505234957137,
                27.899568138553366
              ],
              [
                86.91545879729834,
                27.899568388473664
              ],
              [
                86.9154586569815,
                27.89974893685613
              ],
              [
                86.91505220858079,
                27.89974868694482
              ]
            ],
            [
              [
                86.91545837635678,
                27.900110033621072
              ],
              [
                86.91545851667362,
                27.8999294852386
              ],
              [
                86.91566174121085,
                27.8999296097451
              ],
              [
                86.91566160123536,
                27.900110158127568
              ],
              [
                86.91545837635678,
                27.900110033621072
              ]
            ],
            [
              [
                86.91586496574807,
                27.899929733955155
              ],
              [
                86.91586538466842,
                27.89938808878978
              ],
              [
                86.91606860819952,
                27.899388212694408
              ],
              [
                86.91606846889778,
                27.89956876108586
              ],
              [
                86.91627169276126,
                27.899568884694045
              ],
              [
                86.91627155380087,
                27.899749433085496
              ],
              [
                86.91606832959602,
                27.89974930947731
              ],
              [
                86.91606819029427,
                27.899929857868763
              ],
              [
                86.91586496574807,
                27.899929733955155
              ]
            ],
            [
              [
                86.91647366895464,
                27.901193943367154
              ],
              [
                86.91647436212166,
                27.90029120154464
              ],
              [
                86.91667758734161,
                27.900291324559937
              ],
              [
                86.91667772563724,
                27.900110776177467
              ],
              [
                86.91769385007505,
                27.900111386735418
              ],
              [
                86.91769316703204,
                27.90101412861183
              ],
              [
                86.91748994045565,
                27.90101400708774
              ],
              [
                86.9174898034985,
                27.90119455545224
              ],
              [
                86.91708334968096,
                27.901194311514725
              ],
              [
                86.91708376254667,
                27.9006526664302
              ],
              [
                86.91667731075033,
                27.900652421297924
              ],
              [
                86.91667689586342,
                27.90119406638245
              ],
              [
                86.91647366895464,
                27.901193943367154
              ]
            ],
            [
              [
                86.91688136437865,
                27.89956925372196
              ],
              [
                86.91688150233293,
                27.899388705321527
              ],
              [
                86.91708472586404,
                27.89938882773495
              ],
              [
                86.91708458825113,
                27.899569376135386
              ],
              [
                86.91688136437865,
                27.89956925372196
              ]
            ],
            [
              [
                86.91789693869717,
                27.90029205633655
              ],
              [
                86.91789721122807,
                27.899930959562628
              ],
              [
                86.91871010945779,
                27.899931441418946
              ],
              [
                86.91870997453982,
                27.900111989810398
              ],
              [
                86.91850674964327,
                27.900111869795477
              ],
              [
                86.91850661439292,
                27.900292418177948
              ],
              [
                86.91789693869717,
                27.90029205633655
              ]
            ],
            [
              [
                86.91891306485975,
                27.900292657911347
              ],
              [
                86.91891333402197,
                27.89993156112844
              ],
              [
                86.91911655858613,
                27.899931680541492
              ],
              [
                86.91911669282138,
                27.899751132141056
              ],
              [
                86.91891346859857,
                27.899751012728007
              ],
              [
                86.91891373776078,
                27.899389915918153
              ],
              [
                86.91932018485893,
                27.899390154438827
              ],
              [
                86.91931991705317,
                27.899751251257666
              ],
              [
                86.92053926242596,
                27.89975195964215
              ],
              [
                86.92053939430762,
                27.899571411232728
              ],
              [
                86.92114906600588,
                27.89957176137806
              ],
              [
                86.92114893513032,
                27.89975230979646
              ],
              [
                86.92155538361187,
                27.899752541732486
              ],
              [
                86.92155525341904,
                27.899933090141904
              ],
              [
                86.92074235511745,
                27.899932625066114
              ],
              [
                86.92074222357714,
                27.90011317346655
              ],
              [
                86.92053899866264,
                27.900113056452
              ],
              [
                86.92053886678096,
                27.900293604852436
              ],
              [
                86.92074209202785,
                27.900293721866987
              ],
              [
                86.92074182892927,
                27.90065481864989
              ],
              [
                86.92053860300865,
                27.900654701626358
              ],
              [
                86.92053873489031,
                27.900474153243888
              ],
              [
                86.92013228373179,
                27.90047391829851
              ],
              [
                86.92013241628719,
                27.90029336991604
              ],
              [
                86.91992919104928,
                27.900293251994192
              ],
              [
                86.91992932394604,
                27.90011270360274
              ],
              [
                86.91931964923845,
                27.90011234804955
              ],
              [
                86.91931951532658,
                27.900292896441005
              ],
              [
                86.91891306485975,
                27.900292657911347
              ]
            ],
            [
              [
                86.9215555138047,
                27.899571993314083
              ],
              [
                86.92155577419038,
                27.899210896468297
              ],
              [
                86.92236866711106,
                27.8992113567381
              ],
              [
                86.92236840942034,
                27.899572453583886
              ],
              [
                86.9215555138047,
                27.899571993314083
              ]
            ],
            [
              [
                86.92196144352715,
                27.900294417684037
              ],
              [
                86.92196157304625,
                27.900113869283604
              ],
              [
                86.92216479796974,
                27.900113984205078
              ],
              [
                86.92216466878303,
                27.900294532605514
              ],
              [
                86.92196144352715,
                27.900294417684037
              ]
            ],
            [
              [
                86.92236802288426,
                27.900114098821124
              ],
              [
                86.92236815172961,
                27.899933550420688
              ],
              [
                86.92277460089389,
                27.89993377875447
              ],
              [
                86.92277434455063,
                27.900294875573305
              ],
              [
                86.92257111929477,
                27.900294761550146
              ],
              [
                86.92257124780775,
                27.90011421314971
              ],
              [
                86.92236802288426,
                27.900114098821124
              ]
            ],
            [
              [
                86.92297820898479,
                27.899392247216994
              ],
              [
                86.92297833681505,
                27.899211698780626
              ],
              [
                86.92318156004971,
                27.899211812201916
              ],
              [
                86.92318143255183,
                27.8993923606293
              ],
              [
                86.92297820898479,
                27.899392247216994
              ]
            ],
            [
              [
                86.92338402033621,
                27.90029521583717
              ],
              [
                86.92338414749275,
                27.900114667436732
              ],
              [
                86.92358737241625,
                27.90011478025615
              ],
              [
                86.92358724559209,
                27.900295328665567
              ],
              [
                86.92338402033621,
                27.90029521583717
              ]
            ],
            [
              [
                86.93415517937096,
                27.899939685644586
              ],
              [
                86.93415539794005,
                27.89957858871795
              ],
              [
                86.93435862191133,
                27.899578685655154
              ],
              [
                86.93435873085002,
                27.899398137182853
              ],
              [
                86.93496840175776,
                27.899398426197827
              ],
              [
                86.93496829382516,
                27.899578974670128
              ],
              [
                86.93517151780543,
                27.89957907041257
              ],
              [
                86.93517141020523,
                27.89975961887589
              ],
              [
                86.93537463452685,
                27.89975971432189
              ],
              [
                86.93537442000019,
                27.90012081123954
              ],
              [
                86.93517119501381,
                27.900120715802522
              ],
              [
                86.9351710874136,
                27.900301264256857
              ],
              [
                86.93476463676711,
                27.90030107247553
              ],
              [
                86.93476474504105,
                27.900120524021194
              ],
              [
                86.9343582950683,
                27.90012033103612
              ],
              [
                86.93435840401597,
                27.899939782581786
              ],
              [
                86.93415517937096,
                27.899939685644586
              ]
            ],
            [
              [
                86.92114945860558,
                27.899030116113874
              ],
              [
                86.92114958946318,
                27.898849567686486
              ],
              [
                86.92135281201512,
                27.89884968379374
              ],
              [
                86.9213526814899,
                27.899030232230107
              ],
              [
                86.92114945860558,
                27.899030116113874
              ]
            ],
            [
              [
                86.9201332116286,
                27.899210079477495
              ],
              [
                86.92013307907318,
                27.899390627895897
              ],
              [
                86.91992985551514,
                27.899390509983032
              ],
              [
                86.9199299884119,
                27.899209961564633
              ],
              [
                86.9201332116286,
                27.899210079477495
              ]
            ],
            [
              [
                86.9201332116286,
                27.899210079477495
              ],
              [
                86.92013347673041,
                27.898848982622727
              ],
              [
                86.92033669927338,
                27.898849100239147
              ],
              [
                86.92033683148742,
                27.89866855180278
              ],
              [
                86.92074327590858,
                27.898668786119337
              ],
              [
                86.9207434074399,
                27.89848823768297
              ],
              [
                86.92094662931811,
                27.89848835439209
              ],
              [
                86.9209462357123,
                27.899029999701195
              ],
              [
                86.92114945860558,
                27.899030116113874
              ],
              [
                86.92114932773902,
                27.899210664541258
              ],
              [
                86.92053965807096,
                27.899210314404908
              ],
              [
                86.9205395261893,
                27.89939086282331
              ],
              [
                86.92033630263124,
                27.899390745503336
              ],
              [
                86.92033643484528,
                27.899210197084933
              ],
              [
                86.9201332116286,
                27.899210079477495
              ]
            ]
          ]
        ]
      },
      "id": "+9364+1451",
      "properties": {
        "area_m2": 1654876.9176502242,
        "count": 16510,
        "image_id": "COPERNICUS/S2_SR_HARMONIZED/20241107T045011_20241107T045627_T45RVL",
        "lake_id": "imja-tsho",
        "observed_at": "2024-11-07T05:01:00.558000Z",
        "water": 1
      }
    }
  ]
}
