{
  "type": "FeatureCollection",
  "features": [
    {
      "type": "Feature",
      "geometry": {
        "geodesic": false,
        "type": "MultiPolygon",
        "coordinates": [
          [
            [
              [
                86.92074518305888,
                27.896050833288946
              ],
              [
                86.92044035707775,
                27.89605065767729
              ],
              [
                86.92044042308595,
                27.895960383423173
              ],
              [
                86.92074524881556,
                27.89596055903483
              ],
              [
                86.92074518305888,
                27.896050833288946
              ]
            ]
          ],
          [
            [
              [
                86.92206648364112,
                27.89550994091178
              ],
              [
                86.92206635431965,
                27.89569048943798
              ],
              [
                86.92196474599464,
                27.895690431945802
              ],
              [
                86.9219648754868,
                27.895509883428584
              ],
              [
                86.92206648364112,
                27.89550994091178
              ]
            ]
          ],
          [
            [
              [
                86.9267408239412,
                27.894970858666863
              ],
              [
                86.92674088472121,
                27.894880584385795
              ],
              [
                86.9268424923096,
                27.894880638347594
              ],
              [
                86.92684243161044,
                27.89497091262866
              ],
              [
                86.9267408239412,
                27.894970858666863
              ]
            ]
          ],
          [
            [
              [
                86.93131339714805,
                27.894612115766446
              ],
              [
                86.93131345413717,
                27.894521841476397
              ],
              [
                86.93141506139318,
                27.894521892069513
              ],
              [
                86.9314150044849,
                27.894612166359565
              ],
              [
                86.93131339714805,
                27.894612115766446
              ]
            ]
          ],
          [
            [
              [
                86.93486987038717,
                27.894252744772967
              ],
              [
                86.93486992442982,
                27.894162470464952
              ],
              [
                86.93497153135345,
                27.89416251843499
              ],
              [
                86.93497147740064,
                27.894252792743004
              ],
              [
                86.93486987038717,
                27.894252744772967
              ]
            ]
          ],
          [
            [
              [
                86.93598781308627,
                27.893801896789004
              ],
              [
                86.93598797241147,
                27.89353107384699
              ],
              [
                86.93608957875121,
                27.893531120990577
              ],
              [
                86.93608941967753,
                27.893801943941572
              ],
              [
                86.93598781308627,
                27.893801896789004
              ]
            ]
          ],
          [
            [
              [
                86.93649574068814,
                27.893982680404314
              ],
              [
                86.93649579337433,
                27.893892406087314
              ],
              [
                86.93659740005542,
                27.89389245286259
              ],
              [
                86.93659734745009,
                27.893982727170606
              ],
              [
                86.93649574068814,
                27.893982680404314
              ]
            ]
          ],
          [
            [
              [
                86.92074518305888,
                27.896050833288946
              ],
              [
                86.92084679171626,
                27.896050891670455
              ],
              [
                86.92084672604044,
                27.896141165924572
              ],
              [
                86.92094833478764,
                27.896141224234217
              ],
              [
                86.92094840038263,
                27.8960509499801
              ],
              [
                86.92115161769739,
                27.896051066383794
              ],
              [
                86.921151748546,
                27.89587051787556
              ],
              [
                86.92125335704168,
                27.89587057596063
              ],
              [
                86.92125342237615,
                27.895780301697528
              ],
              [
                86.92165985601754,
                27.895780533301174
              ],
              [
                86.92165992101064,
                27.895690259038076
              ],
              [
                86.92155831268565,
                27.895690201249455
              ],
              [
                86.92155837776858,
                27.895599926995338
              ],
              [
                86.92176159425689,
                27.895600042491733
              ],
              [
                86.92176146442338,
                27.89578059100895
              ],
              [
                86.92196468124408,
                27.895780706208903
              ],
              [
                86.92196461650249,
                27.89587098046302
              ],
              [
                86.92206622499819,
                27.895871037955196
              ],
              [
                86.92206628965891,
                27.8957807636921
              ],
              [
                86.92226950647961,
                27.895780878442892
              ],
              [
                86.9222696354687,
                27.895600329925674
              ],
              [
                86.92216802722454,
                27.89560027258621
              ],
              [
                86.92216809180442,
                27.89550999832311
              ],
              [
                86.92206648364112,
                27.89550994091178
              ],
              [
                86.92206654830186,
                27.89541966664868
              ],
              [
                86.92237137253127,
                27.895419838658093
              ],
              [
                86.92237130812207,
                27.89551011292119
              ],
              [
                86.92247291627639,
                27.895510170107944
              ],
              [
                86.92247298060475,
                27.895419895844842
              ],
              [
                86.92257458867823,
                27.895419952959728
              ],
              [
                86.92257465291675,
                27.895329678687645
              ],
              [
                86.92267626090938,
                27.895329735730666
              ],
              [
                86.92267645337343,
                27.8950589129234
              ],
              [
                86.92277806111453,
                27.89505896988557
              ],
              [
                86.922777868902,
                27.895329792692838
              ],
              [
                86.92287947689464,
                27.89532984957416
              ],
              [
                86.92287960486864,
                27.89514930103898
              ],
              [
                86.92298121269059,
                27.89514935784844
              ],
              [
                86.92298114879341,
                27.89523963212052
              ],
              [
                86.92308275669622,
                27.895239688858116
              ],
              [
                86.92308288432885,
                27.895059140313947
              ],
              [
                86.92318449206995,
                27.895059196979677
              ],
              [
                86.92318442834346,
                27.89514947125176
              ],
              [
                86.92338764398737,
                27.895149584349653
              ],
              [
                86.9233873897282,
                27.895510681420017
              ],
              [
                86.92348899789151,
                27.89551073786117
              ],
              [
                86.92348906137545,
                27.895420463589087
              ],
              [
                86.9239971017698,
                27.895420744653972
              ],
              [
                86.92399716483152,
                27.89533047039087
              ],
              [
                86.92460681280527,
                27.895330805192977
              ],
              [
                86.92460687536395,
                27.895240530920894
              ],
              [
                86.92481009118751,
                27.895240641925714
              ],
              [
                86.92481015356651,
                27.89515036764465
              ],
              [
                86.92531819272118,
                27.895150643840665
              ],
              [
                86.92531825468697,
                27.895060369568583
              ],
              [
                86.92541986242807,
                27.89506042458141
              ],
              [
                86.9254198005521,
                27.895150698853495
              ],
              [
                86.92562301621398,
                27.89515080865457
              ],
              [
                86.92562307791925,
                27.895060534382488
              ],
              [
                86.9259279011695,
                27.895060698522656
              ],
              [
                86.92592802407701,
                27.89488014996951
              ],
              [
                86.9260296316564,
                27.894880204533177
              ],
              [
                86.9260295089106,
                27.895060753086327
              ],
              [
                86.92613111666068,
                27.895060807578133
              ],
              [
                86.92613117795274,
                27.894970533297066
              ],
              [
                86.9267408239412,
                27.894970858666863
              ],
              [
                86.92674076316119,
                27.895061132938945
              ],
              [
                86.92704558641145,
                27.895061294608748
              ],
              [
                86.92704546535448,
                27.89524184317088
              ],
              [
                86.9296872713662,
                27.895243216084094
              ],
              [
                86.9296873880394,
                27.895062667521962
              ],
              [
                86.92989060355752,
                27.895062771034834
              ],
              [
                86.92989071988936,
                27.894882222463718
              ],
              [
                86.93009393507512,
                27.89488232567116
              ],
              [
                86.93009405107456,
                27.89470177709106
              ],
              [
                86.93029726591897,
                27.89470188000206
              ],
              [
                86.93029715025189,
                27.894882428582157
              ],
              [
                86.93039875784926,
                27.894882479920877
              ],
              [
                86.93039887333667,
                27.89470193134976
              ],
              [
                86.93050048076336,
                27.894701982616617
              ],
              [
                86.93050036543765,
                27.894882531196714
              ],
              [
                86.9307035806234,
                27.89488263350584
              ],
              [
                86.93070363811559,
                27.894792359215792
              ],
              [
                86.93080524562312,
                27.894792410258066
              ],
              [
                86.93080541784813,
                27.894521587378936
              ],
              [
                86.93100863236015,
                27.894521689247888
              ],
              [
                86.9310085751195,
                27.894611963537937
              ],
              [
                86.93111018246535,
                27.894612014355634
              ],
              [
                86.93111023961616,
                27.894521740065585
              ],
              [
                86.93121184687217,
                27.894521790802433
              ],
              [
                86.9312117898022,
                27.894612065101466
              ],
              [
                86.93131339714805,
                27.894612115766446
              ],
              [
                86.93131334015892,
                27.894702390056494
              ],
              [
                86.93151655501231,
                27.894702491170865
              ],
              [
                86.93151666864918,
                27.894521942581783
              ],
              [
                86.93171988316121,
                27.894522043399707
              ],
              [
                86.93171999646572,
                27.89434149480164
              ],
              [
                86.93182160355104,
                27.894341545098314
              ],
              [
                86.93182149041722,
                27.89452209369638
              ],
              [
                86.93192309768222,
                27.894522143912205
              ],
              [
                86.93192298471907,
                27.894702692501284
              ],
              [
                86.93212619957245,
                27.89470279271734
              ],
              [
                86.932126424825,
                27.89434169553019
              ],
              [
                86.93222803191033,
                27.894341745521437
              ],
              [
                86.93222797568478,
                27.89443201982047
              ],
              [
                86.93232958285994,
                27.89443206973985
              ],
              [
                86.93232963900465,
                27.89434179544082
              ],
              [
                86.93243124608998,
                27.894341845288334
              ],
              [
                86.93243107791638,
                27.894612668176446
              ],
              [
                86.93253268526222,
                27.894612717952096
              ],
              [
                86.9325328531843,
                27.894341895055
              ],
              [
                86.9326344602786,
                27.8943419447498
              ],
              [
                86.93263429259908,
                27.894612767646898
              ],
              [
                86.93283750729076,
                27.894612866811922
              ],
              [
                86.93283756301325,
                27.89452259251289
              ],
              [
                86.93354881385025,
                27.8945229372324
              ],
              [
                86.93354870358205,
                27.89470348582148
              ],
              [
                86.93395513330677,
                27.894703681160138
              ],
              [
                86.93395502371231,
                27.89488422974922
              ],
              [
                86.93415823891603,
                27.8948843269649
              ],
              [
                86.93415802040982,
                27.895245424143063
              ],
              [
                86.93436123628729,
                27.895245521062296
              ],
              [
                86.93436112736656,
                27.895426069642397
              ],
              [
                86.9347675597952,
                27.895426262582554
              ],
              [
                86.9347676680422,
                27.895245714002456
              ],
              [
                86.93497088391966,
                27.895245810023376
              ],
              [
                86.93497120764555,
                27.89470416425613
              ],
              [
                86.9347679927742,
                27.89470406823521
              ],
              [
                86.93476826337371,
                27.89425269672208
              ],
              [
                86.93486987038717,
                27.894252744772967
              ],
              [
                86.93486981635351,
                27.894343019072
              ],
              [
                86.93507303055112,
                27.894343114940206
              ],
              [
                86.9350730844141,
                27.894252840641172
              ],
              [
                86.93517469142758,
                27.894252888458496
              ],
              [
                86.93517485277398,
                27.893982065543433
              ],
              [
                86.93507324602102,
                27.89398201771713
              ],
              [
                86.93507329988401,
                27.89389174340911
              ],
              [
                86.9349716932119,
                27.89389169551094
              ],
              [
                86.93497163925909,
                27.89398196982794
              ],
              [
                86.93476842573521,
                27.893981873807018
              ],
              [
                86.93476853397323,
                27.89380132519099
              ],
              [
                86.93497174715574,
                27.893801421202927
              ],
              [
                86.93497185506136,
                27.893620872577912
              ],
              [
                86.93588631287352,
                27.893621300939554
              ],
              [
                86.93588620649501,
                27.893801849573553
              ],
              [
                86.93598781308627,
                27.893801896789004
              ],
              [
                86.93598770686948,
                27.893982445414018
              ],
              [
                86.93608931363141,
                27.893982492557605
              ],
              [
                86.9360892075853,
                27.89416304118262
              ],
              [
                86.93639402838315,
                27.8941631821732
              ],
              [
                86.93639413392621,
                27.893982633548188
              ],
              [
                86.93649574068814,
                27.893982680404314
              ],
              [
                86.93649568800195,
                27.89407295471233
              ],
              [
                86.93659729485373,
                27.894073001487605
              ],
              [
                86.93659724224838,
                27.89416327579562
              ],
              [
                86.93649563531577,
                27.894163229020343
              ],
              [
                86.93649558262958,
                27.894253503328358
              ],
              [
                86.93659718964304,
                27.894253550103635
              ],
              [
                86.93659713704668,
                27.894343824411653
              ],
              [
                86.93649552994339,
                27.894343777636376
              ],
              [
                86.93649547725718,
                27.89443405194439
              ],
              [
                86.93659708444133,
                27.894434098710683
              ],
              [
                86.9365969266253,
                27.894704921625745
              ],
              [
                86.93669853406996,
                27.894704968320177
              ],
              [
                86.93669858658548,
                27.894614694021143
              ],
              [
                86.9368001939403,
                27.894614740643707
              ],
              [
                86.93680003663631,
                27.894885563549785
              ],
              [
                86.93700325184902,
                27.894885656579316
              ],
              [
                86.93700314732105,
                27.895066205168398
              ],
              [
                86.93761279398325,
                27.895066482451377
              ],
              [
                86.93761269046139,
                27.895247031049443
              ],
              [
                86.93781590635682,
                27.89524712287523
              ],
              [
                86.93781580316735,
                27.89542767146431
              ],
              [
                86.93801901939516,
                27.895427762993656
              ],
              [
                86.93801891654704,
                27.895608311582738
              ],
              [
                86.9382221331162,
                27.895608402806655
              ],
              [
                86.93822182556897,
                27.89615004854695
              ],
              [
                86.93801860798472,
                27.89614995731405
              ],
              [
                86.93801829941341,
                27.896691603000445
              ],
              [
                86.93822151801277,
                27.896691694242328
              ],
              [
                86.93822110792286,
                27.897413888427977
              ],
              [
                86.93801788797603,
                27.897413797195075
              ],
              [
                86.93801778510995,
                27.89759434573026
              ],
              [
                86.93740812428132,
                27.89759407021696
              ],
              [
                86.93740802040014,
                27.89777461874316
              ],
              [
                86.93720479978856,
                27.897774526306517
              ],
              [
                86.93720459136145,
                27.898135623349933
              ],
              [
                86.93700137007612,
                27.898135530616845
              ],
              [
                86.9370012655212,
                27.89831607912508
              ],
              [
                86.93679804390351,
                27.898315986086565
              ],
              [
                86.93679772922367,
                27.898857631593298
              ],
              [
                86.93659450659088,
                27.89885753825834
              ],
              [
                86.93659440136223,
                27.899038086748607
              ],
              [
                86.93639117838808,
                27.899037993108223
              ],
              [
                86.93639128395809,
                27.898857444617956
              ],
              [
                86.9355783934359,
                27.898857067065023
              ],
              [
                86.93557828651842,
                27.89903761555529
              ],
              [
                86.93517184058808,
                27.899037424977703
              ],
              [
                86.93517162539666,
                27.89939852194027
              ],
              [
                86.93496840175776,
                27.899398426197827
              ],
              [
                86.93496829382516,
                27.899578974670128
              ],
              [
                86.93517151780543,
                27.89957907041257
              ],
              [
                86.93517141020523,
                27.89975961887589
              ],
              [
                86.9361875317864,
                27.899760093087544
              ],
              [
                86.93618763769777,
                27.899579544615243
              ],
              [
                86.9365940856583,
                27.899579732201442
              ],
              [
                86.9365942961246,
                27.899218635238874
              ],
              [
                86.93700074274663,
                27.89921882162133
              ],
              [
                86.93700063819172,
                27.899399370102614
              ],
              [
                86.9374070854875,
                27.89939955529031
              ],
              [
                86.93740677382598,
                27.899941200716192
              ],
              [
                86.93720354917198,
                27.899941108270568
              ],
              [
                86.93720334071791,
                27.900302205197203
              ],
              [
                86.9370001153812,
                27.900302112455133
              ],
              [
                86.9370000108173,
                27.900482660909468
              ],
              [
                86.93639033381001,
                27.90048238086866
              ],
              [
                86.93639022823102,
                27.900662929322994
              ],
              [
                86.93618700222954,
                27.900662835377183
              ],
              [
                86.93618689630918,
                27.900843383822533
              ],
              [
                86.93598366996635,
                27.900843289571295
              ],
              [
                86.93598345746089,
                27.90120438644403
              ],
              [
                86.93557700343673,
                27.90120419705222
              ],
              [
                86.935576949969,
                27.90129447126142
              ],
              [
                86.93527210919262,
                27.901294328429287
              ],
              [
                86.93527216291187,
                27.901204054220088
              ],
              [
                86.9350689359043,
                27.901203958621377
              ],
              [
                86.93506898978524,
                27.901113684403192
              ],
              [
                86.93456092268399,
                27.901113444103853
              ],
              [
                86.93456097699614,
                27.90102316988567
              ],
              [
                86.93425613698332,
                27.90102302480775
              ],
              [
                86.934256191547,
                27.90093275059855
              ],
              [
                86.93374812529913,
                27.900932507298837
              ],
              [
                86.93374818027604,
                27.900842233080656
              ],
              [
                86.93395140660988,
                27.900842330628713
              ],
              [
                86.9339515162313,
                27.900661782192344
              ],
              [
                86.93374829023881,
                27.90066168465327
              ],
              [
                86.93374840020158,
                27.90048113620792
              ],
              [
                86.93293549758808,
                27.90048074305125
              ],
              [
                86.93293538627783,
                27.90066129148762
              ],
              [
                86.93273216029432,
                27.900661192439376
              ],
              [
                86.93273210446402,
                27.90075146665756
              ],
              [
                86.93202081292438,
                27.90075111765309
              ],
              [
                86.93202086933857,
                27.900660843443887
              ],
              [
                86.9317160303678,
                27.900660692742516
              ],
              [
                86.93171608703354,
                27.900570418533317
              ],
              [
                86.93110640959505,
                27.900570115118345
              ],
              [
                86.93110646677282,
                27.90047984090016
              ],
              [
                86.93070001548853,
                27.90047963712632
              ],
              [
                86.93070007299866,
                27.90038936291712
              ],
              [
                86.92978555838604,
                27.900388900042206
              ],
              [
                86.92978561665976,
                27.90029862582402
              ],
              [
                86.92968400400487,
                27.90029857402716
              ],
              [
                86.92968394565929,
                27.90038884823636
              ],
              [
                86.92917588199859,
                27.90038858809324
              ],
              [
                86.92917594076637,
                27.900298313875055
              ],
              [
                86.92887110282867,
                27.900298156894458
              ],
              [
                86.92887104380037,
                27.90038843110366
              ],
              [
                86.92785491650592,
                27.90038790294817
              ],
              [
                86.9278548566332,
                27.90047817715737
              ],
              [
                86.92724517976964,
                27.90047785666543
              ],
              [
                86.92724511939387,
                27.90056813087463
              ],
              [
                86.92633060334394,
                27.900567645074705
              ],
              [
                86.92633054221359,
                27.900657919274924
              ],
              [
                86.92602570327875,
                27.900657755997138
              ],
              [
                86.92602582606048,
                27.90047720758772
              ],
              [
                86.92541614922388,
                27.900476879001957
              ],
              [
                86.92541602542704,
                27.900657427411375
              ],
              [
                86.92460312164573,
                27.900656985098895
              ],
              [
                86.92460305907807,
                27.900747259299113
              ],
              [
                86.92419660685054,
                27.900747036346242
              ],
              [
                86.92419654394152,
                27.90083731054646
              ],
              [
                86.9232820256997,
                27.900836804516477
              ],
              [
                86.9232819620361,
                27.90092707870771
              ],
              [
                86.922164216625,
                27.900926451980087
              ],
              [
                86.92216415202715,
                27.90101672617132
              ],
              [
                86.92145285891544,
                27.90101632263013
              ],
              [
                86.92145279373369,
                27.90110659681238
              ],
              [
                86.92084311342958,
                27.901106247996555
              ],
              [
                86.92084304773579,
                27.901196522178807
              ],
              [
                86.92013175348322,
                27.901196111810417
              ],
              [
                86.92013168719653,
                27.90128638599267
              ],
              [
                86.91992846009911,
                27.901286268070823
              ],
              [
                86.9199285265475,
                27.90119599388857
              ],
              [
                86.91982691308412,
                27.90119593481536
              ],
              [
                86.91982684654592,
                27.90128620899761
              ],
              [
                86.91931877881585,
                27.90128591250865
              ],
              [
                86.91931871185542,
                27.901376186690904
              ],
              [
                86.91901387096226,
                27.901376007890228
              ],
              [
                86.9190139381742,
                27.90128573371696
              ],
              [
                86.91850587045312,
                27.901285434227628
              ],
              [
                86.91850580281896,
                27.901375708400895
              ],
              [
                86.91820096193479,
                27.901375527812572
              ],
              [
                86.9182008940491,
                27.901465801985843
              ],
              [
                86.91799766662828,
                27.901465681216337
              ],
              [
                86.91799759857192,
                27.901555955389604
              ],
              [
                86.91759114338893,
                27.901555712952273
              ],
              [
                86.91759107500019,
                27.901645987125544
              ],
              [
                86.917387847247,
                27.90164586545772
              ],
              [
                86.9173877786786,
                27.901736139622006
              ],
              [
                86.91718455075473,
                27.90173601765774
              ],
              [
                86.91718448202462,
                27.901826291822026
              ],
              [
                86.91687963989179,
                27.901826108305194
              ],
              [
                86.91687957091015,
                27.901916382478465
              ],
              [
                86.91667634264493,
                27.901916259750628
              ],
              [
                86.91667627349261,
                27.9020065339239
              ],
              [
                86.91647304507468,
                27.90200641089962
              ],
              [
                86.91647297575169,
                27.902096685063903
              ],
              [
                86.91616813286426,
                27.902096499975023
              ],
              [
                86.91616806328975,
                27.902186774130325
              ],
              [
                86.91596483453044,
                27.902186650360445
              ],
              [
                86.91596476478524,
                27.90227692452473
              ],
              [
                86.91565992139476,
                27.90227673830397
              ],
              [
                86.91565985139803,
                27.902367012468257
              ],
              [
                86.91484693503132,
                27.902366512582752
              ],
              [
                86.91484700570179,
                27.902276238427447
              ],
              [
                86.91464377678079,
                27.902276112708225
              ],
              [
                86.91464406013638,
                27.90191501606905
              ],
              [
                86.91484728838364,
                27.90191514177929
              ],
              [
                86.9148475710655,
                27.90155404512215
              ],
              [
                86.91464434349197,
                27.90155391940293
              ],
              [
                86.91464462684756,
                27.901192822727822
              ],
              [
                86.91444139994778,
                27.901192696712155
              ],
              [
                86.91444154196243,
                27.9010121483746
              ],
              [
                86.914238315404,
                27.90101202206249
              ],
              [
                86.91423860009809,
                27.90065092536043
              ],
              [
                86.91383214833768,
                27.90065067183789
              ],
              [
                86.91383243437025,
                27.90028957511787
              ],
              [
                86.91403565957222,
                27.900289702031852
              ],
              [
                86.91403623028091,
                27.89956750853791
              ],
              [
                86.9138330064264,
                27.89956738163291
              ],
              [
                86.91383329244101,
                27.899206284858987
              ],
              [
                86.91403651562177,
                27.899206411755006
              ],
              [
                86.9140369436241,
                27.898664766562682
              ],
              [
                86.91383372145842,
                27.89866463965768
              ],
              [
                86.91383400746405,
                27.898303542838846
              ],
              [
                86.91403722895598,
                27.89830366973486
              ],
              [
                86.91403708629453,
                27.898484218153264
              ],
              [
                86.91424030812782,
                27.898484344752838
              ],
              [
                86.91424059277698,
                27.898123247916033
              ],
              [
                86.91403737161743,
                27.898123121316463
              ],
              [
                86.91403751427887,
                27.89794257289806
              ],
              [
                86.91444395592424,
                27.897942825782795
              ],
              [
                86.91444409791197,
                27.89776227735541
              ],
              [
                86.9148505388836,
                27.897762529045387
              ],
              [
                86.91485068019757,
                27.89758198060902
              ],
              [
                86.91525712049547,
                27.897582231104234
              ],
              [
                86.91525726113571,
                27.897401682658884
              ],
              [
                86.916070140411,
                27.897402180038092
              ],
              [
                86.91607027969478,
                27.897221631583758
              ],
              [
                86.91688315764054,
                27.89722212416596
              ],
              [
                86.91688329556787,
                27.897041575711626
              ],
              [
                86.91769617219312,
                27.897042063496826
              ],
              [
                86.91769630877297,
                27.896861515024526
              ],
              [
                86.91810274641186,
                27.896861757120494
              ],
              [
                86.91810288232696,
                27.896681208648193
              ],
              [
                86.91820449156825,
                27.896681268979048
              ],
              [
                86.91820442369155,
                27.8967715432152
              ],
              [
                86.91830603302266,
                27.89677160348317
              ],
              [
                86.91830610080953,
                27.896681329238035
              ],
              [
                86.91932219325834,
                27.89668192773161
              ],
              [
                86.91932232713427,
                27.896501379241343
              ],
              [
                86.92033841793017,
                27.896501970233988
              ],
              [
                86.92033855012625,
                27.89632142174372
              ],
              [
                86.92054176795305,
                27.896321539036748
              ],
              [
                86.92054189980777,
                27.896140990537496
              ],
              [
                86.92074511729322,
                27.896141107534078
              ],
              [
                86.92074518305888,
                27.896050833288946
              ]
            ],
            [
              [
                86.92125335704168,
                27.89587057596063
              ],
              [
                86.92135496552838,
                27.89587063397383
              ],
              [
                86.92135490027476,
                27.895960908227945
              ],
              [
                86.92125329169822,
                27.895960850214745
              ],
              [
                86.92125335704168,
                27.89587057596063
              ]
            ],
            [
              [
                86.93497088391966,
                27.895245810023376
              ],
              [
                86.93537731568357,
                27.895246001166903
              ],
              [
                86.93537720845167,
                27.89542654975598
              ],
              [
                86.93497077601403,
                27.895426358603473
              ],
              [
                86.93497088391966,
                27.895245810023376
              ]
            ],
            [
              [
                86.9360892075853,
                27.89416304118262
              ],
              [
                86.93608915456673,
                27.894253315490634
              ],
              [
                86.93598754754427,
                27.894253268338066
              ],
              [
                86.93598760065268,
                27.894162994030047
              ],
              [
                86.9360892075853,
                27.89416304118262
              ]
            ],
            [
              [
                86.92267606844533,
                27.895600558519966
              ],
              [
                86.92267613260302,
                27.895510284256865
              ],
              [
                86.92277774075734,
                27.895510341219037
              ],
              [
                86.92277767668949,
                27.895600615482138
              ],
              [
                86.92267606844533,
                27.895600558519966
              ]
            ],
            [
              [
                86.92561949828556,
                27.900296440420565
              ],
              [
                86.92561962174103,
                27.900115892002162
              ],
              [
                86.92582284667351,
                27.90011600152476
              ],
              [
                86.92582272355939,
                27.900296549943164
              ],
              [
                86.92561949828556,
                27.900296440420565
              ]
            ],
            [
              [
                86.92663574643936,
                27.900116436632754
              ],
              [
                86.92663598996364,
                27.899755339777982
              ],
              [
                86.92683921424036,
                27.899755447800395
              ],
              [
                86.92683933566563,
                27.899574899364026
              ],
              [
                86.92724578352734,
                27.89957511451952
              ],
              [
                86.92724554202427,
                27.89993621139226
              ],
              [
                86.92704231741517,
                27.899936103962734
              ],
              [
                86.92704219633126,
                27.900116652390118
              ],
              [
                86.92663574643936,
                27.900116436632754
              ]
            ],
            [
              [
                86.92765283176011,
                27.898672586199602
              ],
              [
                86.92765307189775,
                27.898311489255
              ],
              [
                86.92785629347053,
                27.898311595777226
              ],
              [
                86.92785641320698,
                27.898131047304926
              ],
              [
                86.92846607692819,
                27.898131365065993
              ],
              [
                86.92846595820684,
                27.898311913547275
              ],
              [
                86.9286691797886,
                27.89831201886576
              ],
              [
                86.92866894302863,
                27.898673115819342
              ],
              [
                86.92846572077312,
                27.898673010491876
              ],
              [
                86.92846560205177,
                27.898853558964177
              ],
              [
                86.92785593427917,
                27.898853241185144
              ],
              [
                86.9278560540156,
                27.898672692721828
              ],
              [
                86.92765283176011,
                27.898672586199602
              ]
            ],
            [
              [
                86.92785725128124,
                27.89686720781916
              ],
              [
                86.9278574907182,
                27.896506110775743
              ],
              [
                86.92806070892229,
                27.89650621699254
              ],
              [
                86.92806082829941,
                27.896325668466343
              ],
              [
                86.92826404617112,
                27.896325774377715
              ],
              [
                86.92826416521586,
                27.896145225851516
              ],
              [
                86.92887381781594,
                27.896145541789
              ],
              [
                86.9288736997863,
                27.896326090324184
              ],
              [
                86.92907691765801,
                27.896326195040796
              ],
              [
                86.92907679996074,
                27.896506743566995
              ],
              [
                86.92928001817383,
                27.896506847987165
              ],
              [
                86.92927966609712,
                27.897048493547796
              ],
              [
                86.92907644687791,
                27.89704838913661
              ],
              [
                86.92907632917166,
                27.897228937644844
              ],
              [
                86.92826345093845,
                27.89722851697278
              ],
              [
                86.92826356999217,
                27.89704796846455
              ],
              [
                86.92806035077297,
                27.89704786254419
              ],
              [
                86.92806047015907,
                27.89686731403596
              ],
              [
                86.92785725128124,
                27.89686720781916
              ]
            ],
            [
              [
                86.92887228333173,
                27.898492672369084
              ],
              [
                86.92887251941798,
                27.898131575406516
              ],
              [
                86.92907574065838,
                27.89813168013211
              ],
              [
                86.92907550524588,
                27.898492777094678
              ],
              [
                86.92887228333173,
                27.898492672369084
              ]
            ],
            [
              [
                86.93171976986568,
                27.89470259198879
              ],
              [
                86.93171982651344,
                27.894612317689756
              ],
              [
                86.93182143385928,
                27.89461236798643
              ],
              [
                86.93182137729238,
                27.894702642276478
              ],
              [
                86.93171976986568,
                27.89470259198879
              ]
            ],
            [
              [
                86.93192151609934,
                27.897049823728153
              ],
              [
                86.93192162908045,
                27.896869275201954
              ],
              [
                86.93212484797625,
                27.89686937542699
              ],
              [
                86.9321247353365,
                27.89704992395319
              ],
              [
                86.93192151609934,
                27.897049823728153
              ]
            ],
            [
              [
                86.93222780699914,
                27.894702842708583
              ],
              [
                86.93222791945922,
                27.894522294119504
              ],
              [
                86.93232952671524,
                27.894522344038883
              ],
              [
                86.93232941442582,
                27.894702892627965
              ],
              [
                86.93222780699914,
                27.894702842708583
              ]
            ],
            [
              [
                86.93395305088617,
                27.898134103598103
              ],
              [
                86.93395316049862,
                27.89795355508987
              ],
              [
                86.93435960236856,
                27.897953749251734
              ],
              [
                86.93435949342987,
                27.898134297759967
              ],
              [
                86.93395305088617,
                27.898134103598103
              ]
            ],
            [
              [
                86.93456249750255,
                27.898495491399224
              ],
              [
                86.93456260610887,
                27.898314942899976
              ],
              [
                86.93476582771758,
                27.898315039226322
              ],
              [
                86.93476571945263,
                27.898495587725574
              ],
              [
                86.93456249750255,
                27.898495491399224
              ]
            ],
            [
              [
                86.93568277986381,
                27.89416285214115
              ],
              [
                86.93568288658366,
                27.893982303525117
              ],
              [
                86.93578449334561,
                27.893982350893282
              ],
              [
                86.93578438679643,
                27.894162899509315
              ],
              [
                86.93568277986381,
                27.89416285214115
              ]
            ],
            [
              [
                86.93588578095408,
                27.894524044028692
              ],
              [
                86.93588583414333,
                27.89443376972966
              ],
              [
                86.93598744132748,
                27.894433816954095
              ],
              [
                86.93598738821908,
                27.89452409125313
              ],
              [
                86.93588578095408,
                27.894524044028692
              ]
            ],
            [
              [
                86.93618943800246,
                27.896510219867483
              ],
              [
                86.93618975567368,
                27.895968574181087
              ],
              [
                86.93639297291658,
                27.89596866810893
              ],
              [
                86.93639307846863,
                27.895788119537816
              ],
              [
                86.93700272916426,
                27.89578839951574
              ],
              [
                86.93700262462731,
                27.89596894809584
              ],
              [
                86.93720584187022,
                27.895969040819946
              ],
              [
                86.93720573766565,
                27.896149589391058
              ],
              [
                86.93740895524093,
                27.89614968181872
              ],
              [
                86.93740874750551,
                27.896510778951967
              ],
              [
                86.9372055292565,
                27.896510686515324
              ],
              [
                86.93720542505193,
                27.896691235077455
              ],
              [
                86.93700220646156,
                27.89669114234437
              ],
              [
                86.93700210191562,
                27.896871690888535
              ],
              [
                86.93679888299287,
                27.896871597859004
              ],
              [
                86.93679898787119,
                27.896691049305854
              ],
              [
                86.93639255069942,
                27.89669086234848
              ],
              [
                86.93639265625147,
                27.89651031379533
              ],
              [
                86.93618943800246,
                27.896510219867483
              ]
            ],
            [
              [
                86.936393764521,
                27.894614553704297
              ],
              [
                86.93639381729702,
                27.89452427939628
              ],
              [
                86.93649542457099,
                27.894524326243424
              ],
              [
                86.93649537187582,
                27.89461460055144
              ],
              [
                86.936393764521,
                27.894614553704297
              ]
            ],
            [
              [
                86.92247285195701,
                27.89560044437104
              ],
              [
                86.92247278762866,
                27.895690718634143
              ],
              [
                86.92237117930365,
                27.89569066144739
              ],
              [
                86.92237124371286,
                27.89560038718429
              ],
              [
                86.92247285195701,
                27.89560044437104
              ]
            ],
            [
              [
                86.92247285195701,
                27.89560044437104
              ],
              [
                86.92247291627639,
                27.895510170107944
              ],
              [
                86.9225745244397,
                27.89551022722283
              ],
              [
                86.92257446020118,
                27.895600501485927
              ],
              [
                86.92247285195701,
                27.89560044437104
              ]
            ]
          ],
          [
            [
              [
                86.92247304492412,
                27.89532962158174
              ],
              [
                86.92247298060475,
                27.895419895844842
              ],
              [
                86.92237137253127,
                27.895419838658093
              ],
              [
                86.92237143694048,
                27.89532956439499
              ],
              [
                86.92247304492412,
                27.89532962158174
              ]
            ]
          ],
          [
            [
              [
                86.92257465291675,
                27.895329678687645
              ],
              [
                86.92247304492412,
                27.89532962158174
              ],
              [
                86.92247310925248,
                27.89523934730966
              ],
              [
                86.92257471715527,
                27.895239404424544
              ],
              [
                86.92257465291675,
                27.895329678687645
              ]
            ]
          ]
        ]
      },
      "id": "+9374+1460",
      "properties": {
        "area_m2": 1340239.7234447722,
        "count": 13371,
        "image_id": "COPERNICUS/S2_SR_HARMONIZED/20251117T044959_20251117T045240_T45RVL",
        "lake_id": "imja-tsho",
        "observed_at": "2025-11-17T05:01:00.426000Z",
        "water": 1
      }
    }
  ]
}
